{"spkid": "50719888", "covariance": {"elements": [{"units": null, "value": ".6819143393754913", "title": "eccentricity", "name": "e", "sigma": 3.39990009403782e-08, "label": "e"}, {"label": "q", "name": "q", "sigma": 9.44860483742793e-08, "units": "au", "value": ".8622646473356796", "title": "perihelion distance"}, {"label": "tp", "units": "TDB", "title": "time of perihelion passage", "value": "2458751.021351891322", "name": "tp", "sigma": 1.43088893832935e-05}, {"label": "node", "sigma": 0.000118995430942046, "name": "om", "title": "longitude of the ascending node", "value": "154.0035027824134", "units": "deg"}, {"label": "peri", "units": "deg", "value": "24.42277295749867", "title": "argument of perihelion", "sigma": 0.000108265413168181, "name": "w"}, {"title": "inclination", "value": "6.02433438617219", "units": "deg", "name": "i", "sigma": 8.76247842891564e-06, "label": "i"}], "data": [["1.155932064943836E-15", "-3.212024833008727E-15", "1.895649473333792E-13", "2.311059389032718E-12", "-2.084806397536607E-12", "-2.393256404551713E-13"], ["-3.212024833008727E-15", "8.927613337386646E-15", "-5.107634502743056E-13", "-6.319749705901939E-12", "5.702924324310557E-12", "6.60777949620181E-13"], ["1.895649473333792E-13", "-5.107634502743056E-13", "2.047443153833289E-10", "1.421611981127047E-9", "-1.246005803347761E-9", "-8.979010073183669E-11"], ["2.311059389032718E-12", "-6.319749705901939E-12", "1.421611981127047E-9", "1.415991258508324E-8", "-1.286070234455491E-8", "-8.954375192659131E-10"], ["-2.084806397536607E-12", "5.702924324310557E-12", "-1.246005803347761E-9", "-1.286070234455491E-8", "1.172139968847686E-8", "8.058736461054165E-10"], ["-2.393256404551713E-13", "6.60777949620181E-13", "-8.979010073183669E-11", "-8.954375192659131E-10", "8.058736461054165E-10", "7.678102821721198E-11"]], "labels": ["e", "q", "tp", "node", "peri", "i"], "epoch": "2458760.5"}, "elements": [{"sigma": "3.0861E-8", "name": "e", "units": null, "title": "eccentricity", "value": ".6920581826277729", "label": "e"}, {"label": "a", "value": "2.683330151022735", "title": "semi-major axis", "units": "au", "sigma": "1.5628E-8", "name": "a"}, {"units": "au", "value": ".8263095633156337", "title": "perihelion distance", "sigma": "8.4734E-8", "name": "q", "label": "q"}, {"label": "i", "name": "i", "sigma": "8.2501E-6", "value": "6.012288073525797", "title": "inclination; angle with respect to x-y ecliptic plane", "units": "deg"}, {"label": "node", "value": "153.4847617595103", "title": "longitude of the ascending node", "units": "deg", "name": "om", "sigma": ".00012364"}, {"label": "peri", "title": "argument of perihelion", "value": "25.25167231543501", "units": "deg", "name": "w", "sigma": ".00011297"}, {"sigma": "5.4038E-6", "name": "ma", "title": "mean anomaly", "value": "184.9305419902192", "units": "deg", "label": "M"}, {"label": "tp", "name": "tp", "sigma": "3.0677E-5", "units": "TDB", "value": "2461981.259863068033", "title": "time of perihelion passage"}, {"units": "d", "value": "1605.497348879603", "title": "sidereal orbital period", "sigma": "1.4026E-5", "name": "per", "label": "period"}, {"label": "n", "sigma": "1.9589E-9", "name": "n", "title": "mean motion", "value": ".2242295823479411", "units": "deg/d"}, {"name": "ad", "sigma": "2.6444E-8", "value": "4.540350738729835", "title": "aphelion distance", "units": "au", "label": "Q"}], "epoch": "2461200.5"}